{
    "links": {
        "self": "http://www.neowsapp.com/rest/v1/neo/3837849?api_key=iIulBulltgU6a56xZRHN4H3l9WmuAYTsLGpBGhQ2"
    },
    "id": "3837849",
    "neo_reference_id": "3837849",
    "name": "(2019 AE11)",
    "designation": "2019 AE11",
    "nasa_jpl_url": "http://ssd.jpl.nasa.gov/sbdb.cgi?sstr=3837849",
    "absolute_magnitude_h": 22.2,
    "estimated_diameter": {
        "kilometers": {
            "estimated_diameter_min": 0.096506147,
            "estimated_diameter_max": 0.2157943048
        },
        "meters": {
            "estimated_diameter_min": 96.5061469579,
            "estimated_diameter_max": 215.7943048444
        },
        "miles": {
            "estimated_diameter_min": 0.059966121,
            "estimated_diameter_max": 0.134088323
        },
        "feet": {
            "estimated_diameter_min": 316.6212271853,
            "estimated_diameter_max": 707.9865871058
        }
    },
    "is_potentially_hazardous_asteroid": false,
    "close_approach_data": [
        {
            "close_approach_date": "2013-07-08",
            "close_approach_date_full": "2013-Jul-08 12:40",
            "epoch_date_close_approach": 1373287200000,
            "relative_velocity": {
                "kilometers_per_second": "28.4516992668",
                "kilometers_per_hour": "102426.1173604688",
                "miles_per_hour": "63643.606089898"
            },
            "miss_distance": {
                "astronomical": "0.3464633543",
                "lunar": "134.7742448227",
                "kilometers": "51830179.836335341",
                "miles": "32205780.3484200658"
            },
            "orbiting_body": "Earth"
        },
        {
            "close_approach_date": "2018-12-17",
            "close_approach_date_full": "2018-Dec-17 19:48",
            "epoch_date_close_approach": 1545076080000,
            "relative_velocity": {
                "kilometers_per_second": "12.4369341231",
                "kilometers_per_hour": "44772.9628431431",
                "miles_per_hour": "27820.1779399519"
            },
            "miss_distance": {
                "astronomical": "0.2956668813",
                "lunar": "115.0144168257",
                "kilometers": "44231135.672022831",
                "miles": "27483953.2587478278"
            },
            "orbiting_body": "Earth"
        }
    ],
    "orbital_data": {
        "orbit_id": "4",
        "orbit_determination_date": "2019-02-03 07:03:42",
        "first_observation_date": "2019-01-10",
        "last_observation_date": "2019-02-02",
        "data_arc_in_days": 23,
        "observations_used": 27,
        "orbit_uncertainty": "7",
        "minimum_orbit_intersection": ".0269709",
        "jupiter_tisserand_invariant": "3.656",
        "epoch_osculation": "2459000.5",
        "eccentricity": ".6169311882666115",
        "semi_major_axis": "1.885157022856853",
        "inclination": "19.01698701302777",
        "ascending_node_longitude": "299.759367844316",
        "orbital_period": "945.4089782255504",
        "perihelion_distance": ".7221448606766268",
        "perihelion_argument": "81.379821076463",
        "aphelion_distance": "3.048169185037078",
        "perihelion_time": "2459365.373185471317",
        "mean_anomaly": "221.0608215121729",
        "mean_motion": ".3807875832485623",
        "equinox": "J2000",
        "orbit_class": {
            "orbit_class_type": "APO",
            "orbit_class_description": "Near-Earth asteroid orbits which cross the Earth’s orbit similar to that of 1862 Apollo",
            "orbit_class_range": "a (semi-major axis) > 1.0 AU; q (perihelion) < 1.017 AU"
        }
    },
    "is_sentry_object": false
}